NORAD_CAT_ID,OBJECT_NAME,OBJECT_TYPE,EPOCH,MEAN_MOTION,ECCENTRICITY,INCLINATION,RA_OF_ASC_NODE,ARG_OF_PERICENTER,MEAN_ANOMALY,BSTAR,MEAN_MOTION_DOT,MEAN_MOTION_DDOT,TLE_LINE0,TLE_LINE1,TLE_LINE2,SEMIMAJOR_AXIS,PERIOD,APOGEE,PERIGEE,DECAYED
55294.0,STARLINK-5286,PAYLOAD,2024-05-30 14:46:35,14.98337469,0.0002947,70.0005,238.3557,265.028,95.0542,7.7233e-05,8.29e-06,0.0,0 STARLINK-5286,1 55294U 23010AB  24151.61569240  .00000829  00000-0  77233-4 0  9992,2 55294  70.0005 238.3557 0002947 265.0280  95.0542 14.98337469 75705,6950.17,96.107,574.083,569.987,0.0
55294.0,STARLINK-5286,PAYLOAD,2024-05-30 16:22:43,14.98338006,0.0002986,70.0004,238.1874,265.7415,94.3403,9.0327e-05,9.85e-06,0.0,0 STARLINK-5286,1 55294U 23010AB  24151.68245133  .00000985  00000-0  90327-4 0  9993,2 55294  70.0004 238.1874 0002986 265.7415  94.3403 14.98338006 75711,6950.168,96.106,574.108,569.958,0.0
55294.0,STARLINK-5286,PAYLOAD,2024-05-31 13:12:28,14.98331706,0.0002904,70.0004,235.9997,260.9248,99.1582,5.562e-05,5.71e-06,0.0,0 STARLINK-5286,1 55294U 23010AB  24152.55033437  .00000571  00000-0  55620-4 0  9990,2 55294  70.0004 235.9997 0002904 260.9248  99.1582 14.98331706 75545,6950.188,96.107,574.071,570.034,0.0
55294.0,STARLINK-5286,PAYLOAD,2024-05-31 14:48:36,14.98331805,0.0002904,70.0004,235.8314,261.2138,98.8692,5.4604e-05,5.59e-06,0.0,0 STARLINK-5286,1 55294U 23010AB  24152.61709424  .00000559  00000-0  54604-4 0  9990,2 55294  70.0004 235.8314 0002904 261.2138  98.8692 14.98331805 75851,6950.187,96.107,574.071,570.034,0.0
55294.0,STARLINK-5286,PAYLOAD,2024-05-31 22:49:16,14.98348733,0.0003093,70.0002,234.9892,272.3384,87.7421,-0.00032024,-3.914e-05,0.0,0 STARLINK-5286,1 55294U 23010AB  24152.95088932 -.00003914  00000-0 -32024-3 0  9992,2 55294  70.0002 234.9892 0003093 272.3384  87.7421 14.98348733 75604,6950.135,96.106,574.15,569.85,0.0
55294.0,STARLINK-5286,PAYLOAD,2024-06-01 13:14:30,14.98327545,0.0002983,70.0002,233.4745,267.9778,92.104,-2.3983e-05,-3.79e-06,0.0,0 STARLINK-5286,1 55294U 23010AB  24153.55173854 -.00000379  00000-0 -23983-4 0  9994,2 55294  70.0002 233.4745 0002983 267.9778  92.1040 14.98327545 75693,6950.2,96.107,574.139,569.992,0.0
55294.0,STARLINK-5286,PAYLOAD,2024-06-01 14:50:38,14.98326649,0.0002996,70.0001,233.3062,267.9895,92.0921,-3.5574e-05,-5.17e-06,0.0,0 STARLINK-5286,1 55294U 23010AB  24153.61849943 -.00000517  00000-0 -35574-4 0  9993,2 55294  70.0001 233.3062 0002996 267.9895  92.0921 14.98326649 76004,6950.203,96.107,574.151,569.986,0.0
55294.0,STARLINK-5286,PAYLOAD,2024-06-02 11:40:22,14.98333419,0.0003229,69.9993,231.1166,268.2193,91.8597,8.5689e-05,9.3e-06,0.0,0 STARLINK-5286,1 55294U 23010AB  24154.48637240  .00000930  00000-0  85689-4 0  9993,2 55294  69.9993 231.1166 0003229 268.2193  91.8597 14.98333419 75836,6950.182,96.107,574.292,569.803,0.0
55294.0,STARLINK-5286,PAYLOAD,2024-06-03 11:42:23,14.98333844,0.0003315,69.9992,228.5923,268.5842,91.4938,0.00011223,1.246e-05,0.0,0 STARLINK-5286,1 55294U 23010AB  24155.48777225  .00001246  00000-0  11223-3 0  9995,2 55294  69.9992 228.5923 0003315 268.5842  91.4938 14.98333844 76283,6950.181,96.107,574.35,569.742,0.0
55294.0,STARLINK-5286,PAYLOAD,2024-06-04 11:44:24,14.9833478,0.0003087,69.9993,226.0674,266.7364,93.3442,8.6303e-05,9.37e-06,0.0,0 STARLINK-5286,1 55294U 23010AB  24156.48917103  .00000937  00000-0  86303-4 0  9995,2 55294  69.9993 226.0674 0003087 266.7364  93.3442 14.98334780 76130,6950.178,96.107,574.189,569.898,0.0
55294.0,STARLINK-5286,PAYLOAD,2024-06-04 21:21:12,14.98340975,0.0003359,69.9991,225.0576,270.8979,89.1795,-7.5783e-05,-9.97e-06,0.0,0 STARLINK-5286,1 55294U 23010AB  24156.88972883 -.00000997  00000-0 -75783-4 0  9993,2 55294  69.9991 225.0576 0003359 270.8979  89.1795 14.98340975 76494,6950.159,96.106,574.359,569.689,0.0
55294.0,STARLINK-5286,PAYLOAD,2024-06-05 11:46:25,14.98332117,0.0003178,69.9993,223.5433,268.4353,91.6442,4.5242e-05,4.47e-06,0.0,0 STARLINK-5286,1 55294U 23010AB  24157.49057205  .00000447  00000-0  45242-4 0  9998,2 55294  69.9993 223.5433 0003178 268.4353  91.6442 14.98332117 76282,6950.186,96.107,574.26,569.843,0.0
55294.0,STARLINK-5286,PAYLOAD,2024-06-05 21:23:13,14.9833866,0.0003156,69.9997,222.5324,270.2662,89.8135,-6.4844e-05,-8.67e-06,0.0,0 STARLINK-5286,1 55294U 23010AB  24157.89112871 -.00000867  00000-0 -64844-4 0  9990,2 55294  69.9997 222.5324 0003156 270.2662  89.8135 14.98338660 76641,6950.166,96.106,574.225,569.838,0.0
55294.0,STARLINK-5286,PAYLOAD,2024-06-06 05:23:54,14.98312724,0.0003441,69.9995,221.6911,272.0248,88.0517,0.00038391,4.489e-05,0.0,0 STARLINK-5286,1 55294U 23010AB  24158.22493323  .00004489  00000-0  38391-3 0  9991,2 55294  69.9995 221.6911 0003441 272.0248  88.0517 14.98312724 76398,6950.246,96.108,574.503,569.72,0.0
55294.0,STARLINK-5286,PAYLOAD,2024-06-06 11:48:26,14.98316695,0.0003404,69.9995,221.018,271.0901,88.9868,0.00036557,4.27e-05,0.0,0 STARLINK-5286,1 55294U 23010AB  24158.49197379  .00004270  00000-0  36557-3 0  9992,2 55294  69.9995 221.0180 0003404 271.0901  88.9868 14.98316695 76731,6950.234,96.108,574.465,569.733,0.0
55294.0,STARLINK-5286,PAYLOAD,2024-06-07 08:38:11,14.98330895,0.0003062,69.9993,218.8297,268.9079,91.1729,2.6307e-05,2.21e-06,0.0,0 STARLINK-5286,1 55294U 23010AB  24159.35985159  .00000221  00000-0  26307-4 0  9994,2 55294  69.9993 218.8297 0003062 268.9079  91.1729 14.98330895 76564,6950.19,96.107,574.183,569.927,0.0
55294.0,STARLINK-5286,PAYLOAD,2024-06-07 13:26:35,14.98333289,0.0003047,69.9993,218.3248,265.7388,94.3423,-3.8168e-05,-5.48e-06,0.0,0 STARLINK-5286,1 55294U 23010AB  24159.56013116 -.00000548  00000-0 -38168-4 0  9994,2 55294  69.9993 218.3248 0003047 265.7388  94.3423 14.98333289 76898,6950.183,96.107,574.165,569.93,0.0
55294.0,STARLINK-5286,PAYLOAD,2024-06-07 21:27:15,14.98334699,0.0003413,69.9988,217.4812,269.3061,90.7707,4.4219e-05,4.35e-06,0.0,0 STARLINK-5286,1 55294U 23010AB  24159.89392753  .00000435  00000-0  44219-4 0  9994,2 55294  69.9988 217.4812 0003413 269.3061  90.7707 14.98334699 76941,6950.178,96.107,574.415,569.671,0.0
55294.0,STARLINK-5286,PAYLOAD,2024-06-08 11:52:27,14.98339085,0.0003365,69.9986,215.9673,268.5388,91.5385,0.00011083,1.23e-05,0.0,0 STARLINK-5286,1 55294U 23010AB  24160.49476235  .00001230  00000-0  11083-3 0  9996,2 55294  69.9986 215.9673 0003365 268.5388  91.5385 14.98339085 77032,6950.165,96.106,574.369,569.691,0.0
55294.0,STARLINK-5286,PAYLOAD,2024-06-08 21:29:15,14.98341973,0.0003386,69.9986,214.9569,269.0984,90.9788,-6.274e-05,-8.42e-06,0.0,0 STARLINK-5286,1 55294U 23010AB  24160.89532205 -.00000842  00000-0 -62740-4 0  9997,2 55294  69.9986 214.9569 0003386 269.0984  90.9788 14.98341973 76797,6950.156,96.106,574.374,569.668,0.0
55294.0,STARLINK-5286,PAYLOAD,2024-06-09 05:29:57,14.98323423,0.0003284,69.999,214.1158,266.9814,93.0969,-1.4065e-05,-2.61e-06,0.0,0 STARLINK-5286,1 55294U 23010AB  24161.22913460 -.00000261  00000-0 -14065-4 0  9993,2 55294  69.9990 214.1158 0003284 266.9814  93.0969 14.98323423 76844,6950.213,96.107,574.361,569.796,0.0
55294.0,STARLINK-5286,PAYLOAD,2024-06-09 13:30:37,14.98323774,0.0003188,69.9989,213.2739,266.2605,93.8189,-8.5254e-06,-1.95e-06,0.0,0 STARLINK-5286,1 55294U 23010AB  24161.56293502 -.00000195  00000-0 -85254-5 0  9993,2 55294  69.9989 213.2739 0003188 266.2605  93.8189 14.98323774 77191,6950.212,96.107,574.293,569.861,0.0
55294.0,STARLINK-5286,PAYLOAD,2024-06-10 05:31:57,14.98325695,0.0003196,69.999,211.591,267.5304,92.5489,0.00016272,1.849e-05,0.0,0 STARLINK-5286,1 55294U 23010AB  24162.23053031  .00001849  00000-0  16272-3 0  9996,2 55294  69.9990 211.5910 0003196 267.5304  92.5489 14.98325695 76994,6950.206,96.107,574.292,569.85,0.0
55294.0,STARLINK-5286,PAYLOAD,2024-06-10 13:32:37,14.98336118,0.0003221,69.9991,210.7499,269.9699,90.1091,4.3126e-05,4.22e-06,0.0,0 STARLINK-5286,1 55294U 23010AB  24162.56432594  .00000422  00000-0  43126-4 0  9992,2 55294  69.9991 210.7499 0003221 269.9699  90.1091 14.98336118 77345,6950.174,96.107,574.278,569.8,0.0
55294.0,STARLINK-5286,PAYLOAD,2024-06-10 19:57:10,14.98334809,0.0003203,69.9992,210.0766,270.1017,89.9775,3.4836e-07,-8.9e-07,0.0,0 STARLINK-5286,1 55294U 23010AB  24162.83136731 -.00000089  00000-0  34836-6 0  9996,2 55294  69.9992 210.0766 0003203 270.1017  89.9775 14.98334809 77388,6950.178,96.107,574.269,569.817,0.0
55294.0,STARLINK-5286,PAYLOAD,2024-06-11 05:33:58,14.98325888,0.0003159,69.9991,209.0667,270.8698,89.2099,0.0001409,1.588e-05,0.0,0 STARLINK-5286,1 55294U 23010AB  24163.23193043  .00001588  00000-0  14090-3 0  9991,2 55294  69.9991 209.0667 0003159 270.8698  89.2099 14.98325888 77140,6950.206,96.107,574.266,569.875,0.0
55294.0,STARLINK-5286,PAYLOAD,2024-06-11 13:34:38,14.98329849,0.0003144,69.9992,208.2255,268.731,91.3489,0.00016245,1.846e-05,0.0,0 STARLINK-5286,1 55294U 23010AB  24163.56572855  .00001846  00000-0  16245-3 0  9990,2 55294  69.9992 208.2255 0003144 268.7310  91.3489 14.98329849 77492,6950.193,96.107,574.243,569.873,0.0
55294.0,STARLINK-5286,PAYLOAD,2024-06-12 05:35:59,14.98329382,0.0003086,69.9995,206.5427,267.5795,92.5011,6.2853e-06,-1.8e-07,0.0,0 STARLINK-5286,1 55294U 23010AB  24164.23333251 -.00000018  00000-0  62853-5 0  9999,2 55294  69.9995 206.5427 0003086 267.5795  92.5011 14.98329382 77290,6950.195,96.107,574.205,569.915,0.0
55294.0,STARLINK-5286,PAYLOAD,2024-06-12 12:00:32,14.9832838,0.0003107,69.9993,205.8691,268.9361,91.1442,-1.213e-05,-2.38e-06,0.0,0 STARLINK-5286,1 55294U 23010AB  24164.50037327 -.00000238  00000-0 -12130-4 0  9991,2 55294  69.9993 205.8691 0003107 268.9361  91.1442 14.98328380 77639,6950.198,96.107,574.222,569.903,0.0
55294.0,STARLINK-5286,PAYLOAD,2024-06-13 05:38:00,14.9833204,0.0003119,69.9992,204.0174,267.8407,92.2395,5.4123e-05,5.53e-06,0.0,0 STARLINK-5286,1 55294U 23010AB  24165.23472905  .00000553  00000-0  54123-4 0  9993,2 55294  69.9992 204.0174 0003119 267.8407  92.2395 14.98332040 77443,6950.187,96.107,574.219,569.884,0.0
